# Made by eph2tle, compiled Aug 29 2024 08:37:33
# Run at Thu Aug 29 10:45:21 2024
#
# Max error 0.004
# (above set tight to avoid mis-identifying GSP8TE = other DRO object)
#
#    The following TLEs (Two-Line Elements) were generated by fitting
# a numerically-integrated ephemeris,  based on the orbit given below,
# to the SDP4/SGP4 models.  Each TLE is good for the interval between
# its epoch and the epoch of the subsequent TLE (usually one day).
# The maximum deviation between the numerically integrated ephemerides
# and the TLE-based ephemeris, in kilometers,  is given for each TLE
# as the "worst residual".
#
#    This fitting is done using the 'eph2tle' code packaged with Find_Orb.
# The code has details on how the TLEs were computed :
#
#    https://github.com/Bill-Gray/find_orb/eph2tle.cpp
#
#    Be warned:  the error given is that between the numerically
# integrated ephems and the TLE model.  There will usually be at
# least some additional difference between the ephems and the actual
# motion of the satellite,  especially if the ephemerides are based
# on a short arc.  If the following orbital elements say something
# like "[based on] 10 observations 2015 Jan. 1-13",  and the TLEs
# are for 2015 May,  the extrapolation may be tenuous at best.  If
# your application requires a specific level of accuracy,  you may
# want to contact me;  I can give you some idea as to the fit of the
# underlying data (and possibly TLEs based on newer data).
#
#   You can usually find the underlying observational data,  and the
# fitted orbit,  residuals,  ephemerides,  and sometimes some comments
# about the object,  among the pages listed at
#
#    https://www.projectpluto.com/pluto/mpecs/pseudo.htm
#
#    WARNING:  for this object,  "normal" TLEs cannot be fitted.  (This
# usually means an object with an hyperbolic or nearly-parabolic orbit.)
# For this and similar cases,   an alternative model is used,  in which
# most of the traditional TLE data is replaced by six signed 8-digit hex
# numbers.  These six numbers are a state vector,  numerically integrated
# using a simplified force model.  This is necessary for objects at L2 or
# L1,  and sometimes for objects in high orbits where the SDP4/SGP4 model
# fails.  Some documentation is in 'get_el.cpp' in the source code at
# https://www.github.com/Bill-Gray/sat_code ; look for 'hex' in that file,
# with the actual integration done in 'sdp4.cpp'.  But be aware:  it's my
# own extension,  doesn't work with other code,  and is therefore used
# only when necessary.
#
#    Also,  if you use a TLE outside the "correct" time range (between
# its MJD and that of the next TLE),  all bets are off.  I've carefully
# computed and minimized the worst error over the "correct" time frame,
# but the ephemeris may (or may not) diverge wildly outside of it.
#
# Ephem range: 60523.000000 60651.000000 1.000000
# Created Thu Aug 29 10:44:32 2024
# Ephemeris start:  1 Aug 2024  0:00:00
# Ephemeris end:    7 Dec 2024  0:00:00
# Times are all TDT
# Positions/velocities are in equatorial J2000
# Orbital elements:  A11acbV = DRO object
#    Perigee 2024 Sep 1.712251 +/- 0.00245 TT = 17:05:38.4 (JD 2460555.212251)
# Epoch 2024 Aug 29.0 TT = JDT 2460551.5                           Find_Orb
# M 320.096813402 +/- 0.06            (J2000 equator)
# n  10.749054773 +/- 0.00957         Peri.  155.944102 +/- 0.06
# a438890.9801 +/- 260                Node   356.621041 +/- 0.00050
# e   0.30487381 +/- 0.000205         Incl.   28.762136 +/- 0.00009
# P  33.4907d                H 26.19  G  0.15   U  9.6
# q 305084.6136 +/- 94.6    Q 572697.3466 +/- 428
# 23 of 28 observations 2024 Aug. 27-29 (37.6 hr); mean residual 0".495
#
# 1 NoradU COSPAR   Epoch.epoch     dn/dt/2  d2n/dt2/6 BSTAR    T El# C
# 2 NoradU Inclina RAAscNode Eccent  ArgPeri MeanAno  MeanMotion Rev# C

# Worst residual: 39.64 km
# MJD 60523.000000 (2024 Aug  1  0:00)
A11acbV = DRO object
1 79916U 24999ZZE 24213.99919926 +001BBPIW +004UX7E1 +002L1O1BH 24331
2 79916                          -0007A8YY -000062PE +0000CCLU     09

# Worst residual: 69.79 km
# MJD 60524.000000 (2024 Aug  2  0:00)
A11acbV = DRO object
1 79916U 24999ZZE 24214.99919926 -000HV4XS +004NHP8M +002KT1KMH 24335
2 79916                          -0007PFH6 -0001K9YZ -0000EY47     01

# Worst residual: 35.86 km
# MJD 60525.000000 (2024 Aug  3  0:00)
A11acbV = DRO object
1 79916U 24999ZZE 24215.99919926 -002BNSC6 +00447DRA +002DTPJMH 24332
2 79916                          -0007DP3B -0002UVU6 -00016STX     02

# Worst residual: 22.08 km
# MJD 60526.000000 (2024 Aug  4  0:00)
A11acbV = DRO object
1 79916U 24999ZZE 24216.99919926 -003Z5TFC +003B3KJX +0020O7HYH 24331
2 79916                          -0006APVG -0003TB3B -0001TMB2     02

# Worst residual: 13.24 km
# MJD 60527.000000 (2024 Aug  5  0:00)
A11acbV = DRO object
1 79916U 24999ZZE 24217.99919926 -005BK780 +002BH08O +001IZ4SSH 24334
2 79916                          -0004VXBS -0004D6KL -00028GR3     04

# Worst residual: 10.54 km
# MJD 60528.000000 (2024 Aug  6  0:00)
A11acbV = DRO object
1 79916U 24999ZZE 24218.99919926 -006BMUIW +0018OZ37 +000YNUQYH 24335
2 79916                          -0003H7QP -0004K31H -0002FOQ1     08

# Worst residual: 8.05 km
# MJD 60529.000000 (2024 Aug  7  0:00)
A11acbV = DRO object
1 79916U 24999ZZE 24219.99919926 -007005US +0005HBEA +000DCI0BH 24338
2 79916                          -00026MU9 -0004HC69 -0002H4PX     09

# Worst residual: 13.57 km
# MJD 60530.000000 (2024 Aug  8  0:00)
A11acbV = DRO object
1 79916U 24999ZZE 24220.99919926 -007DPTRI -000W6Y3U -0007SDRHH 24338
2 79916                          -0001087L -00047LRA -0002EEIO     06

# Worst residual: 25.28 km
# MJD 60531.000000 (2024 Aug  9  0:00)
A11acbV = DRO object
1 79916U 24999ZZE 24221.99919926 -007HL5OU -001UUVNI -000RVH18H 24338
2 79916                          +00003SLH -0003SGS8 -00028IHU     00

# Worst residual: 29.07 km
# MJD 60532.000000 (2024 Aug 10  0:00)
A11acbV = DRO object
1 79916U 24999ZZE 24222.99919926 -007BUSVH -002PDH3I -001A8S2XH 24330
2 79916                          +00018B82 -00039COP -0002093H     01

# Worst residual: 37.39 km
# MJD 60533.000000 (2024 Aug 11  0:00)
A11acbV = DRO object
1 79916U 24999ZZE 24223.99919926 -006W3FVO -003F39LW -001QGLIPH 24333
2 79916                          +0002FFNN -0002P1KC -0001QT2K     04

# Worst residual: 38.41 km
# MJD 60534.000000 (2024 Aug 12  0:00)
A11acbV = DRO object
1 79916U 24999ZZE 24224.99919926 -0065TNZJ -004025D8 -0024DBU3H 24338
2 79916                          +0003NATX -00025UCV -0001H0F4     01

# Worst residual: 38.22 km
# MJD 60535.000000 (2024 Aug 13  0:00)
A11acbV = DRO object
1 79916U 24999ZZE 24225.99919926 -00559AKH -004GDULI -002FSLQJH 24335
2 79916                          +0004SXSV -0001LPA0 -00015SB4     01

# Worst residual: 40.10 km
# MJD 60536.000000 (2024 Aug 14  0:00)
A11acbV = DRO object
1 79916U 24999ZZE 24226.99919926 -003V1HF3 -004RCT29 -002O5CJSH 24330
2 79916                          +0005VPLV -0000WKMU -0000R2NQ     03

# Worst residual: 44.05 km
# MJD 60537.000000 (2024 Aug 15  0:00)
A11acbV = DRO object
1 79916U 24999ZZE 24227.99919926 -002BXEZ4 -004VC4DB -002SCFCIH 24338
2 79916                          +0006UPOW +0000120A -00006T79     06

# Worst residual: 56.92 km
# MJD 60538.000000 (2024 Aug 16  0:00)
A11acbV = DRO object
1 79916U 24999ZZE 24228.99919926 -000L9R25 -004Q0AQQ -002QUKEPH 24335
2 79916                          +0007LB5D +00019027 +0000KGM9     04

# Worst residual: 41.78 km
# MJD 60539.000000 (2024 Aug 17  0:00)
A11acbV = DRO object
1 79916U 24999ZZE 24229.99919926 +0019NQH6 -00497TRE -002I3GOQH 24334
2 79916                          +0007RMCC +0002N2MD +0001GT8D     04

# Worst residual: 26.44 km
# MJD 60540.000000 (2024 Aug 18  0:00)
A11acbV = DRO object
1 79916U 24999ZZE 24230.99919926 +003227W5 -003GTB0F -0021Q2Q4H 24336
2 79916                          +0006YUQA +0003VTSS +0002AEGF     05

# Worst residual: 37.38 km
# MJD 60541.000000 (2024 Aug 19  0:00)
A11acbV = DRO object
1 79916U 24999ZZE 24231.99919926 +004JU0HO -002F9R60 -001FD4QDH 24332
2 79916                          +0005EMAI +0004Q37H +0002TXDR     05

# Worst residual: 36.81 km
# MJD 60542.000000 (2024 Aug 20  0:00)
A11acbV = DRO object
1 79916U 24999ZZE 24232.99919926 +005N104L -0018MEOR -000PR080H 24334
2 79916                          +0003O98Z +00052HBH +00031PS3     08

# Worst residual: 37.36 km
# MJD 60543.000000 (2024 Aug 21  0:00)
A11acbV = DRO object
1 79916U 24999ZZE 24233.99919926 +006BPR6H -0000UK94 +0000K227H 24333
2 79916                          +00022KNI +000509TQ +0003082B     05

# Worst residual: 47.34 km
# MJD 60544.000000 (2024 Aug 22  0:00)
A11acbV = DRO object
1 79916U 24999ZZE 24234.99919926 +006NC95C +00153VVG +000POFCBH 24336
2 79916                          +0000N851 +0004NZY0 +0002S798     08

# Worst residual: 51.44 km
# MJD 60545.000000 (2024 Aug 23  0:00)
A11acbV = DRO object
1 79916U 24999ZZE 24235.99919926 +006N69RS +002799EN +001C9TKHH 24336
2 79916                          -0000OA75 +000452DL +0002FF3C     03

# Worst residual: 30.62 km
# MJD 60546.000000 (2024 Aug 24  0:00)
A11acbV = DRO object
1 79916U 24999ZZE 24236.99919926 +006BQ18V +0034EUSK +001VEYW4H 24336
2 79916                          -0001Z516 +0003J22I +0001ZW0Y     06

# Worst residual: 18.01 km
# MJD 60547.000000 (2024 Aug 25  0:00)
A11acbV = DRO object
1 79916U 24999ZZE 24237.99919926 +005P5102 +003W969M +002AS5XVH 24337
2 79916                          -00038HJJ +0002WYMM +0001K9PS     08

# Worst residual: 7.33 km
# MJD 60548.000000 (2024 Aug 26  0:00)
A11acbV = DRO object
1 79916U 24999ZZE 24238.99919926 +004S70OS +004IOADJ +002MFKMXH 24338
2 79916                          -0004D50K +00029BKK +00014O7A     07

# Worst residual: 7.62 km
# MJD 60549.000000 (2024 Aug 27  0:00)
A11acbV = DRO object
1 79916U 24999ZZE 24239.99919926 +003M5HFF +004YWHDT +002U5O5HH 24336
2 79916                          -0005CALS +0001GVT6 +0000N90U     06

